{"type": "FeatureCollection", "features": [ {"type": "Feature", "properties": {"norad_id": 31183, "name": "FENGYUN 1C DEB", "group": "fengyun-1c-debris", "lat": 74.73587335502985, "lon": -174.69815529473308, "alt_km": 683.6907054562844, "timestamp": "2025-12-11T22:43:47.549973+00:00", "meta": {"OBJECT_NAME": "FENGYUN 1C DEB", "OBJECT_ID": "1999-025BJM", "EPOCH": "2025-12-11T05:45:41.647104", "MEAN_MOTION": 14.50411445, "ECCENTRICITY": 0.00474529, "INCLINATION": 99.0364, "RA_OF_ASC_NODE": 328.8711, "ARG_OF_PERICENTER": 111.8485, "MEAN_ANOMALY": 260.9996, "EPHEMERIS_TYPE": 0, "CLASSIFICATION_TYPE": "U", "NORAD_CAT_ID": 31183, "ELEMENT_SET_NO": 999, "REV_AT_EPOCH": 97461, "BSTAR": 0.0018233412, "MEAN_MOTION_DOT": 7.181e-05, "MEAN_MOTION_DDOT": 0}, "tle": {"line1": "1 31183U 99025BJM 25345.24006536  .00007181  00000+0  18233-2 0  9991", "line2": "2 31183  99.0364 328.8711 0047452 111.8485 260.9996 14.50411445974616"}}, "geometry": {"type": "Point", "coordinates": [-174.69815529473308, 74.73587335502985]}}, {"type": "Feature", "properties": {"norad_id": 31185, "name": "FENGYUN 1C DEB", "group": "fengyun-1c-debris", "lat": -7.13448514968239, "lon": 161.3281595155656, "alt_km": 881.09203471196, "timestamp": "2025-12-11T22:43:47.549983+00:00", "meta": {"OBJECT_NAME": "FENGYUN 1C DEB", "OBJECT_ID": "1999-025BJP", "EPOCH": "2025-12-03T06:44:56.905152", "MEAN_MOTION": 14.03019915, "ECCENTRICITY": 0.0041359, "INCLINATION": 98.8321, "RA_OF_ASC_NODE": 334.0356, "ARG_OF_PERICENTER": 132.5488, "MEAN_ANOMALY": 227.9182, "EPHEMERIS_TYPE": 0, "CLASSIFICATION_TYPE": "U", "NORAD_CAT_ID": 31185, "ELEMENT_SET_NO": 999, "REV_AT_EPOCH": 62204, "BSTAR": 0.0004459, "MEAN_MOTION_DOT": 6.55e-06, "MEAN_MOTION_DDOT": 0}, "tle": {"line1": "1 31185U 99025BJP 25337.28121418  .00000655  00000+0  44590-3 0  9990", "line2": "2 31185  98.8321 334.0356 0041359 132.5488 227.9182 14.03019915622046"}}, "geometry": {"type": "Point", "coordinates": [161.3281595155656, -7.13448514968239]}}, {"type": "Feature", "properties": {"norad_id": 31186, "name": "FENGYUN 1C DEB", "group": "fengyun-1c-debris", "lat": -18.3611026194929, "lon": -95.63814403717406, "alt_km": 852.0256364727902, "timestamp": "2025-12-11T22:43:47.549994+00:00", "meta": {"OBJECT_NAME": "FENGYUN 1C DEB", "OBJECT_ID": "1999-025BJQ", "EPOCH": "2025-12-07T00:08:36.055104", "MEAN_MOTION": 14.12891869, "ECCENTRICITY": 0.00265947, "INCLINATION": 99.1777, "RA_OF_ASC_NODE": 256.2241, "ARG_OF_PERICENTER": 78.4554, "MEAN_ANOMALY": 344.6063, "EPHEMERIS_TYPE": 0, "CLASSIFICATION_TYPE": "U", "NORAD_CAT_ID": 31186, "ELEMENT_SET_NO": 999, "REV_AT_EPOCH": 96024, "BSTAR": 0.00076036897, "MEAN_MOTION_DOT": 1.373e-05, "MEAN_MOTION_DDOT": 0}, "tle": {"line1": "1 31186U 99025BJQ 25341.00597286  .00001373  00000+0  76037-3 0  9995", "line2": "2 31186  99.1777 256.2241 0026594  78.4554 344.6063 14.12891869960248"}}, "geometry": {"type": "Point", "coordinates": [-95.63814403717406, -18.3611026194929]}}, {"type": "Feature", "properties": {"norad_id": 31187, "name": "FENGYUN 1C DEB", "group": "fengyun-1c-debris", "lat": 76.98008407876779, "lon": 74.06028194324753, "alt_km": 779.7528731041357, "timestamp": "2025-12-11T22:43:47.550004+00:00", "meta": {"OBJECT_NAME": "FENGYUN 1C DEB", "OBJECT_ID": "1999-025BJR", "EPOCH": "2025-12-10T08:24:34.611840", "MEAN_MOTION": 14.59210147, "ECCENTRICITY": 0.02206584, "INCLINATION": 99.2415, "RA_OF_ASC_NODE": 207.5247, "ARG_OF_PERICENTER": 231.0303, "MEAN_ANOMALY": 127.1053, "EPHEMERIS_TYPE": 0, "CLASSIFICATION_TYPE": "U", "NORAD_CAT_ID": 31187, "ELEMENT_SET_NO": 999, "REV_AT_EPOCH": 69065, "BSTAR": 0.0052391783, "MEAN_MOTION_DOT": 0.00034832, "MEAN_MOTION_DDOT": 0}, "tle": {"line1": "1 31187U 99025BJR 25344.35040060  .00034832  00000+0  52392-2 0  9993", "line2": "2 31187  99.2415 207.5247 0220658 231.0303 127.1053 14.59210147690653"}}, "geometry": {"type": "Point", "coordinates": [74.06028194324753, 76.98008407876779]}}, {"type": "Feature", "properties": {"norad_id": 31188, "name": "FENGYUN 1C DEB", "group": "fengyun-1c-debris", "lat": -3.067749540073293, "lon": 54.20984099609297, "alt_km": 826.9208449966454, "timestamp": "2025-12-11T22:43:47.550014+00:00", "meta": {"OBJECT_NAME": "FENGYUN 1C DEB", "OBJECT_ID": "1999-025BJS", "EPOCH": "2025-12-09T20:27:36.322272", "MEAN_MOTION": 14.23793839, "ECCENTRICITY": 0.00598746, "INCLINATION": 98.7483, "RA_OF_ASC_NODE": 51.6537, "ARG_OF_PERICENTER": 257.7465, "MEAN_ANOMALY": 168.5076, "EPHEMERIS_TYPE": 0, "CLASSIFICATION_TYPE": "U", "NORAD_CAT_ID": 31188, "ELEMENT_SET_NO": 999, "REV_AT_EPOCH": 96295, "BSTAR": 0.0024661444, "MEAN_MOTION_DOT": 5.704e-05, "MEAN_MOTION_DDOT": 0}, "tle": {"line1": "1 31188U 99025BJS 25343.85250373  .00005704  00000+0  24661-2 0  9992", "line2": "2 31188  98.7483  51.6537 0059874 257.7465 168.5076 14.23793839962951"}}, "geometry": {"type": "Point", "coordinates": [54.20984099609297, -3.067749540073293]}}, {"type": "Feature", "properties": {"norad_id": 31190, "name": "FENGYUN 1C DEB", "group": "fengyun-1c-debris", "lat": -31.555777841488133, "lon": 173.22613647438513, "alt_km": 855.5615326566476, "timestamp": "2025-12-11T22:43:47.550024+00:00", "meta": {"OBJECT_NAME": "FENGYUN 1C DEB", "OBJECT_ID": "1999-025BJU", "EPOCH": "2025-12-08T18:26:23.655840", "MEAN_MOTION": 14.03585649, "ECCENTRICITY": 0.00674931, "INCLINATION": 98.8187, "RA_OF_ASC_NODE": 355.6145, "ARG_OF_PERICENTER": 270.6253, "MEAN_ANOMALY": 88.7181, "EPHEMERIS_TYPE": 0, "CLASSIFICATION_TYPE": "U", "NORAD_CAT_ID": 31190, "ELEMENT_SET_NO": 999, "REV_AT_EPOCH": 95491, "BSTAR": 0.0013180763, "MEAN_MOTION_DOT": 2.067e-05, "MEAN_MOTION_DDOT": 0}, "tle": {"line1": "1 31190U 99025BJU 25342.76832935  .00002067  00000+0  13181-2 0  9998", "line2": "2 31190  98.8187 355.6145 0067493 270.6253  88.7181 14.03585649954916"}}, "geometry": {"type": "Point", "coordinates": [173.22613647438513, -31.555777841488133]}}, {"type": "Feature", "properties": {"norad_id": 31191, "name": "FENGYUN 1C DEB", "group": "fengyun-1c-debris", "lat": -20.821951628546948, "lon": -109.8133899248503, "alt_km": 812.8095503607201, "timestamp": "2025-12-11T22:43:47.550034+00:00", "meta": {"OBJECT_NAME": "FENGYUN 1C DEB", "OBJECT_ID": "1999-025BJV", "EPOCH": "2025-12-11T04:29:42.238752", "MEAN_MOTION": 14.40785114, "ECCENTRICITY": 0.00921545, "INCLINATION": 98.7825, "RA_OF_ASC_NODE": 246.0361, "ARG_OF_PERICENTER": 199.1279, "MEAN_ANOMALY": 160.6441, "EPHEMERIS_TYPE": 0, "CLASSIFICATION_TYPE": "U", "NORAD_CAT_ID": 31191, "ELEMENT_SET_NO": 999, "REV_AT_EPOCH": 97990, "BSTAR": 0.00049630521, "MEAN_MOTION_DOT": 1.621e-05, "MEAN_MOTION_DDOT": 0}, "tle": {"line1": "1 31191U 99025BJV 25345.18729443  .00001621  00000+0  49631-3 0  9992", "line2": "2 31191  98.7825 246.0361 0092154 199.1279 160.6441 14.40785114979908"}}, "geometry": {"type": "Point", "coordinates": [-109.8133899248503, -20.821951628546948]}}, {"type": "Feature", "properties": {"norad_id": 31192, "name": "FENGYUN 1C DEB", "group": "fengyun-1c-debris", "lat": -62.46420135222551, "lon": -13.562205630337433, "alt_km": 1013.0834936528745, "timestamp": "2025-12-11T22:43:47.550044+00:00", "meta": {"OBJECT_NAME": "FENGYUN 1C DEB", "OBJECT_ID": "1999-025BJW", "EPOCH": "2025-12-11T09:31:13.752480", "MEAN_MOTION": 14.20956541, "ECCENTRICITY": 0.02596479, "INCLINATION": 98.5534, "RA_OF_ASC_NODE": 329.1261, "ARG_OF_PERICENTER": 107.6098, "MEAN_ANOMALY": 255.3617, "EPHEMERIS_TYPE": 0, "CLASSIFICATION_TYPE": "U", "NORAD_CAT_ID": 31192, "ELEMENT_SET_NO": 999, "REV_AT_EPOCH": 96724, "BSTAR": 0.00041362171, "MEAN_MOTION_DOT": 1.215e-05, "MEAN_MOTION_DDOT": 0}, "tle": {"line1": "1 31192U 99025BJW 25345.39668695  .00001215  00000+0  41362-3 0  9999", "line2": "2 31192  98.5534 329.1261 0259647 107.6098 255.3617 14.20956541967244"}}, "geometry": {"type": "Point", "coordinates": [-13.562205630337433, -62.46420135222551]}}, {"type": "Feature", "properties": {"norad_id": 31194, "name": "FENGYUN 1C DEB", "group": "fengyun-1c-debris", "lat": 4.105917800396451, "lon": 55.63195227351786, "alt_km": 783.007746134952, "timestamp": "2025-12-11T22:43:47.550054+00:00", "meta": {"OBJECT_NAME": "FENGYUN 1C DEB", "OBJECT_ID": "1999-025BJY", "EPOCH": "2025-12-11T15:13:21.147456", "MEAN_MOTION": 14.36639451, "ECCENTRICITY": 0.00574034, "INCLINATION": 98.9628, "RA_OF_ASC_NODE": 234.6574, "ARG_OF_PERICENTER": 282.5341, "MEAN_ANOMALY": 76.9426, "EPHEMERIS_TYPE": 0, "CLASSIFICATION_TYPE": "U", "NORAD_CAT_ID": 31194, "ELEMENT_SET_NO": 999, "REV_AT_EPOCH": 97111, "BSTAR": 0.0016598401, "MEAN_MOTION_DOT": 4.933e-05, "MEAN_MOTION_DDOT": 0}, "tle": {"line1": "1 31194U 99025BJY 25345.63427254  .00004933  00000+0  16598-2 0  9994", "line2": "2 31194  98.9628 234.6574 0057403 282.5341  76.9426 14.36639451971112"}}, "geometry": {"type": "Point", "coordinates": [55.63195227351786, 4.105917800396451]}}, {"type": "Feature", "properties": {"norad_id": 31195, "name": "FENGYUN 1C DEB", "group": "fengyun-1c-debris", "lat": 45.09454677055739, "lon": 10.367414931241193, "alt_km": 953.2509706662258, "timestamp": "2025-12-11T22:43:47.550064+00:00", "meta": {"OBJECT_NAME": "FENGYUN 1C DEB", "OBJECT_ID": "1999-025BJZ", "EPOCH": "2025-12-11T08:51:42.708384", "MEAN_MOTION": 14.07979703, "ECCENTRICITY": 0.01718463, "INCLINATION": 98.7794, "RA_OF_ASC_NODE": 18.7248, "ARG_OF_PERICENTER": 185.0311, "MEAN_ANOMALY": 174.9138, "EPHEMERIS_TYPE": 0, "CLASSIFICATION_TYPE": "U", "NORAD_CAT_ID": 31195, "ELEMENT_SET_NO": 999, "REV_AT_EPOCH": 96079, "BSTAR": 0.00024241666, "MEAN_MOTION_DOT": 4.29e-06, "MEAN_MOTION_DDOT": 0}, "tle": {"line1": "1 31195U 99025BJZ 25345.36924431  .00000429  00000+0  24242-3 0  9996", "line2": "2 31195  98.7794  18.7248 0171846 185.0311 174.9138 14.07979703960792"}}, "geometry": {"type": "Point", "coordinates": [10.367414931241193, 45.09454677055739]}}]}